{"type": "FeatureCollection", "features": [ {"type": "Feature", "properties": {"norad_id": 39122, "name": "EUTELSAT 117 WEST A", "group": "eutelsat", "lat": 0.02887571333012813, "lon": 92.57116174642337, "alt_km": 35797.85894910856, "timestamp": "2025-12-25T07:41:09.394207+00:00", "meta": {"OBJECT_NAME": "EUTELSAT 117 WEST A", "OBJECT_ID": "2013-012A", "EPOCH": "2025-12-24T14:15:19.427904", "MEAN_MOTION": 1.0027077, "ECCENTRICITY": 0.00027295, "INCLINATION": 0.0203, "RA_OF_ASC_NODE": 318.1474, "ARG_OF_PERICENTER": 318.7018, "MEAN_ANOMALY": 273.5546, "EPHEMERIS_TYPE": 0, "CLASSIFICATION_TYPE": "U", "NORAD_CAT_ID": 39122, "ELEMENT_SET_NO": 999, "REV_AT_EPOCH": 4668, "BSTAR": 0, "MEAN_MOTION_DOT": 8e-08, "MEAN_MOTION_DDOT": 0}, "tle": {"line1": "1 39122U 13012A   25358.59397486  .00000008  00000+0  00000+0 0  9994", "line2": "2 39122   0.0203 318.1474 0002729 318.7018 273.5546  1.00270770 46680"}}, "geometry": {"type": "Point", "coordinates": [92.57116174642337, 0.02887571333012813]}}, {"type": "Feature", "properties": {"norad_id": 39163, "name": "EUTELSAT 7B", "group": "eutelsat", "lat": -0.039068418066149704, "lon": -143.69358044953967, "alt_km": 35791.42152242573, "timestamp": "2025-12-25T07:41:09.394219+00:00", "meta": {"OBJECT_NAME": "EUTELSAT 7B", "OBJECT_ID": "2013-022A", "EPOCH": "2025-12-24T21:41:36.689568", "MEAN_MOTION": 1.00271629, "ECCENTRICITY": 0.00046018, "INCLINATION": 0.0658, "RA_OF_ASC_NODE": 9.0078, "ARG_OF_PERICENTER": 313.4788, "MEAN_ANOMALY": 103.5806, "EPHEMERIS_TYPE": 0, "CLASSIFICATION_TYPE": "U", "NORAD_CAT_ID": 39163, "ELEMENT_SET_NO": 999, "REV_AT_EPOCH": 4620, "BSTAR": 0, "MEAN_MOTION_DOT": 6.9e-07, "MEAN_MOTION_DDOT": 0}, "tle": {"line1": "1 39163U 13022A   25358.90389687  .00000069  00000+0  00000+0 0  9996", "line2": "2 39163   0.0658   9.0078 0004601 313.4788 103.5806  1.00271629 46205"}}, "geometry": {"type": "Point", "coordinates": [-143.69358044953967, -0.039068418066149704]}}, {"type": "Feature", "properties": {"norad_id": 39612, "name": "EXPRESS-AT1", "group": "eutelsat", "lat": -0.014806758308013966, "lon": -94.63435654271818, "alt_km": 35789.32542981161, "timestamp": "2025-12-25T07:41:09.394232+00:00", "meta": {"OBJECT_NAME": "EXPRESS-AT1", "OBJECT_ID": "2014-010A", "EPOCH": "2025-12-24T21:55:35.351040", "MEAN_MOTION": 1.00271265, "ECCENTRICITY": 8.894e-05, "INCLINATION": 0.0123, "RA_OF_ASC_NODE": 292.9239, "ARG_OF_PERICENTER": 186.2231, "MEAN_ANOMALY": 359.4276, "EPHEMERIS_TYPE": 0, "CLASSIFICATION_TYPE": "U", "NORAD_CAT_ID": 39612, "ELEMENT_SET_NO": 999, "REV_AT_EPOCH": 4307, "BSTAR": 0, "MEAN_MOTION_DOT": 1e-06, "MEAN_MOTION_DDOT": 0}, "tle": {"line1": "1 39612U 14010A   25358.91360360  .00000100  00000+0  00000+0 0  9997", "line2": "2 39612   0.0123 292.9239 0000889 186.2231 359.4276  1.00271265 43077"}}, "geometry": {"type": "Point", "coordinates": [-94.63435654271818, -0.014806758308013966]}}, {"type": "Feature", "properties": {"norad_id": 39613, "name": "EXPRESS-AT2", "group": "eutelsat", "lat": 0.005576252453171171, "lon": -10.755934527926115, "alt_km": 35784.49715469108, "timestamp": "2025-12-25T07:41:09.394244+00:00", "meta": {"OBJECT_NAME": "EXPRESS-AT2", "OBJECT_ID": "2014-010B", "EPOCH": "2025-12-24T22:19:25.569120", "MEAN_MOTION": 1.00272061, "ECCENTRICITY": 0.0001582, "INCLINATION": 0.0172, "RA_OF_ASC_NODE": 291.1665, "ARG_OF_PERICENTER": 341.4259, "MEAN_ANOMALY": 295.8232, "EPHEMERIS_TYPE": 0, "CLASSIFICATION_TYPE": "U", "NORAD_CAT_ID": 39613, "ELEMENT_SET_NO": 999, "REV_AT_EPOCH": 4275, "BSTAR": 0, "MEAN_MOTION_DOT": -2.6e-06, "MEAN_MOTION_DDOT": 0}, "tle": {"line1": "1 39613U 14010B   25358.93015705 -.00000260  00000+0  00000+0 0  9998", "line2": "2 39613   0.0172 291.1665 0001582 341.4259 295.8232  1.00272061 42756"}}, "geometry": {"type": "Point", "coordinates": [-10.755934527926115, 0.005576252453171171]}}, {"type": "Feature", "properties": {"norad_id": 39773, "name": "EUTELSAT 3B", "group": "eutelsat", "lat": -0.049840038577788376, "lon": -147.55488117592523, "alt_km": 35770.06765385456, "timestamp": "2025-12-25T07:41:09.394255+00:00", "meta": {"OBJECT_NAME": "EUTELSAT 3B", "OBJECT_ID": "2014-030A", "EPOCH": "2025-12-24T21:40:29.296704", "MEAN_MOTION": 1.00269847, "ECCENTRICITY": 0.0004252, "INCLINATION": 0.0606, "RA_OF_ASC_NODE": 349.0509, "ARG_OF_PERICENTER": 245.9198, "MEAN_ANOMALY": 186.9247, "EPHEMERIS_TYPE": 0, "CLASSIFICATION_TYPE": "U", "NORAD_CAT_ID": 39773, "ELEMENT_SET_NO": 999, "REV_AT_EPOCH": 4232, "BSTAR": 0, "MEAN_MOTION_DOT": 4.1e-07, "MEAN_MOTION_DDOT": 0}, "tle": {"line1": "1 39773U 14030A   25358.90311686  .00000041  00000+0  00000+0 0  9997", "line2": "2 39773   0.0606 349.0509 0004252 245.9198 186.9247  1.00269847 42329"}}, "geometry": {"type": "Point", "coordinates": [-147.55488117592523, -0.049840038577788376]}}, {"type": "Feature", "properties": {"norad_id": 40425, "name": "EUTELSAT 115 WEST B", "group": "eutelsat", "lat": -0.018513856875473984, "lon": 94.45550869755215, "alt_km": 35786.131792976244, "timestamp": "2025-12-25T07:41:09.394267+00:00", "meta": {"OBJECT_NAME": "EUTELSAT 115 WEST B", "OBJECT_ID": "2015-010B", "EPOCH": "2025-12-24T09:59:58.343136", "MEAN_MOTION": 1.00271259, "ECCENTRICITY": 1.435e-05, "INCLINATION": 0.0435, "RA_OF_ASC_NODE": 188.915, "ARG_OF_PERICENTER": 182.2118, "MEAN_ANOMALY": 117.1483, "EPHEMERIS_TYPE": 0, "CLASSIFICATION_TYPE": "U", "NORAD_CAT_ID": 40425, "ELEMENT_SET_NO": 999, "REV_AT_EPOCH": 3964, "BSTAR": 0, "MEAN_MOTION_DOT": -4e-08, "MEAN_MOTION_DDOT": 0}, "tle": {"line1": "1 40425U 15010B   25358.41664749 -.00000004  00000+0  00000+0 0  9999", "line2": "2 40425   0.0435 188.9150 0000143 182.2118 117.1483  1.00271259 39646"}}, "geometry": {"type": "Point", "coordinates": [94.45550869755215, -0.018513856875473984]}}, {"type": "Feature", "properties": {"norad_id": 40875, "name": "EUTELSAT 8 WEST B", "group": "eutelsat", "lat": -0.017937239010812907, "lon": -158.68459105291356, "alt_km": 35781.02047107403, "timestamp": "2025-12-25T07:41:09.394279+00:00", "meta": {"OBJECT_NAME": "EUTELSAT 8 WEST B", "OBJECT_ID": "2015-039B", "EPOCH": "2025-12-24T21:37:14.608128", "MEAN_MOTION": 1.00271302, "ECCENTRICITY": 0.00042262, "INCLINATION": 0.0643, "RA_OF_ASC_NODE": 8.5313, "ARG_OF_PERICENTER": 265.9038, "MEAN_ANOMALY": 135.5425, "EPHEMERIS_TYPE": 0, "CLASSIFICATION_TYPE": "U", "NORAD_CAT_ID": 40875, "ELEMENT_SET_NO": 999, "REV_AT_EPOCH": 3790, "BSTAR": 0, "MEAN_MOTION_DOT": -4.5e-07, "MEAN_MOTION_DDOT": 0}, "tle": {"line1": "1 40875U 15039B   25358.90086352 -.00000045  00000+0  00000+0 0  9996", "line2": "2 40875   0.0643   8.5313 0004226 265.9038 135.5425  1.00271302 37906"}}, "geometry": {"type": "Point", "coordinates": [-158.68459105291356, -0.017937239010812907]}}, {"type": "Feature", "properties": {"norad_id": 41310, "name": "EUTELSAT 9B", "group": "eutelsat", "lat": -0.006317146851246229, "lon": -141.6575016974947, "alt_km": 35774.33004952931, "timestamp": "2025-12-25T07:41:09.394290+00:00", "meta": {"OBJECT_NAME": "EUTELSAT 9B", "OBJECT_ID": "2016-005A", "EPOCH": "2025-12-24T06:17:44.244960", "MEAN_MOTION": 1.00272813, "ECCENTRICITY": 0.00045278, "INCLINATION": 0.023, "RA_OF_ASC_NODE": 38.5865, "ARG_OF_PERICENTER": 233.3148, "MEAN_ANOMALY": 284.5874, "EPHEMERIS_TYPE": 0, "CLASSIFICATION_TYPE": "U", "NORAD_CAT_ID": 41310, "ELEMENT_SET_NO": 999, "REV_AT_EPOCH": 3636, "BSTAR": 0, "MEAN_MOTION_DOT": 8.3e-07, "MEAN_MOTION_DDOT": 0}, "tle": {"line1": "1 41310U 16005A   25358.26231765  .00000083  00000+0  00000+0 0  9995", "line2": "2 41310   0.0230  38.5865 0004527 233.3148 284.5874  1.00272813 36363"}}, "geometry": {"type": "Point", "coordinates": [-141.6575016974947, -0.006317146851246229]}}, {"type": "Feature", "properties": {"norad_id": 41382, "name": "EUTELSAT 65 WEST A", "group": "eutelsat", "lat": 0.02876555340599, "lon": 144.1653865147468, "alt_km": 35792.59231444535, "timestamp": "2025-12-25T07:41:09.394302+00:00", "meta": {"OBJECT_NAME": "EUTELSAT 65 WEST A", "OBJECT_ID": "2016-014A", "EPOCH": "2025-12-24T19:38:18.500352", "MEAN_MOTION": 1.00272022, "ECCENTRICITY": 0.00022735, "INCLINATION": 0.0488, "RA_OF_ASC_NODE": 342.9947, "ARG_OF_PERICENTER": 293.8547, "MEAN_ANOMALY": 46.1348, "EPHEMERIS_TYPE": 0, "CLASSIFICATION_TYPE": "U", "NORAD_CAT_ID": 41382, "ELEMENT_SET_NO": 999, "REV_AT_EPOCH": 3578, "BSTAR": 0, "MEAN_MOTION_DOT": -2.55e-06, "MEAN_MOTION_DDOT": 0}, "tle": {"line1": "1 41382U 16014A   25358.81826968 -.00000255  00000+0  00000+0 0  9992", "line2": "2 41382   0.0488 342.9947 0002273 293.8547  46.1348  1.00272022 35785"}}, "geometry": {"type": "Point", "coordinates": [144.1653865147468, 0.02876555340599]}}, {"type": "Feature", "properties": {"norad_id": 41589, "name": "EUTELSAT 117 WEST B", "group": "eutelsat", "lat": -0.0061763996771021035, "lon": 92.37350215192447, "alt_km": 35786.85773018435, "timestamp": "2025-12-25T07:41:09.394314+00:00", "meta": {"OBJECT_NAME": "EUTELSAT 117 WEST B", "OBJECT_ID": "2016-038B", "EPOCH": "2025-12-24T09:59:01.014144", "MEAN_MOTION": 1.00277873, "ECCENTRICITY": 6.384e-05, "INCLINATION": 0.0094, "RA_OF_ASC_NODE": 154.0765, "ARG_OF_PERICENTER": 139.5473, "MEAN_ANOMALY": 192.3072, "EPHEMERIS_TYPE": 0, "CLASSIFICATION_TYPE": "U", "NORAD_CAT_ID": 41589, "ELEMENT_SET_NO": 999, "REV_AT_EPOCH": 3491, "BSTAR": 0, "MEAN_MOTION_DOT": 9e-08, "MEAN_MOTION_DDOT": 0}, "tle": {"line1": "1 41589U 16038B   25358.41598396  .00000009  00000+0  00000+0 0  9990", "line2": "2 41589   0.0094 154.0765 0000638 139.5473 192.3072  1.00277873 34915"}}, "geometry": {"type": "Point", "coordinates": [92.37350215192447, -0.0061763996771021035]}}]}